ONEWEB-0389             
1 50469U 21132A   25336.22028168  .00000029  00000+0  40796-4 0  9991
2 50469  87.9132  45.0384 0001599 113.9897 246.1403 13.17647426192140
ONEWEB-0390             
1 50470U 21132B   25336.22197751  .00000063  00000+0  13010-3 0  9994
2 50470  87.9123  45.0407 0001548  93.9610 266.1698 13.17648652192142
ONEWEB-0391             
1 50471U 21132C   25336.22366138  .00000071  00000+0  15053-3 0  9990
2 50471  87.9121  45.0501 0001095 126.2724 233.8509 13.17648795192149
ONEWEB-0392             
1 50472U 21132D   25336.48184521  .00000003  00000+0 -24517-4 0  9995
2 50472  87.9128  44.9498 0001492 113.7216 246.4072 13.17647299192219
ONEWEB-0393             
1 50473U 21132E   25336.22716656 -.00000216  00000+0 -58945-3 0  9996
2 50473  87.9134  45.0226 0001631 107.3321 252.7989 13.17648791192179
ONEWEB-0394             
1 50474U 21132F   25336.50182910  .00000023  00000+0  25595-4 0  9998
2 50474  87.9194  14.5037 0001746 102.1722 257.9606 13.18685353195679
ONEWEB-0395             
1 50475U 21132G   25336.47396442  .00000173  00000+0  45353-3 0  9991
2 50475  87.8861  60.2497 0001391 101.2280 258.9005 13.11415338189936
ONEWEB-0396             
1 50476U 21132H   25336.49523052  .00000014  00000+0  40189-5 0  9991
2 50476  87.9193  14.5174 0001754 100.2593 259.8737 13.18684886195717
ONEWEB-0397             
1 50477U 21132J   25336.35832647  .00000083  00000+0  17654-3 0  9995
2 50477  87.9189  14.5447 0001847 102.5288 257.6051 13.18686615195677
ONEWEB-0398             
1 50478U 21132K   25336.51804606  .00000160  00000+0  41670-3 0  9999
2 50478  87.8871  60.2127 0001383  93.0631 267.0655 13.11419513189839
ONEWEB-0399             
1 50479U 21132L   25336.50447985 -.00000459  00000+0 -13304-2 0  9997
2 50479  87.8863  60.2301 0001631 122.9138 237.2147 13.11418666189827
ONEWEB-0400             
1 50480U 21132M   25336.48863288  .00000102  00000+0  22709-3 0  9997
2 50480  87.9193  14.5089 0001678  91.4079 268.7245 13.18685366195685
ONEWEB-0401             
1 50481U 21132N   25336.38141339 -.00000015  00000+0 -69547-4 0  9990
2 50481  87.9191  14.5268 0001964  98.8191 261.3164 13.18683724195671
ONEWEB-0402             
1 50482U 21132P   25336.49688108  .00000050  00000+0  94361-4 0  9992
2 50482  87.9191  14.4965 0002392 101.6942 258.4459 13.18684935195712
ONEWEB-0403             
1 50483U 21132Q   25336.36986648  .00000108  00000+0  24127-3 0  9995
2 50483  87.9191  14.5428 0001706  98.0752 262.0574 13.18684541195659
ONEWEB-0404             
1 50484U 21132R   25336.48582148 -.00000306  00000+0 -90005-3 0  9996
2 50484  87.8862  60.2432 0001422 115.5608 244.5667 13.11416167189917
ONEWEB-0405             
1 50485U 21132S   25336.38471047  .00000029  00000+0  42015-4 0  9990
2 50485  87.9191  14.5238 0001984 102.7455 257.3898 13.18684160196059
ONEWEB-0406             
1 50486U 21132T   25336.14718979  .00000080  00000+0  17067-3 0  9998
2 50486  87.9194  14.5958 0001249  97.0500 263.0774 13.18684742195651
ONEWEB-0407             
1 50487U 21132U   25336.36821713  .00000042  00000+0  73116-4 0  9990
2 50487  87.9191  14.5358 0001969  94.4718 265.6639 13.18684453195628
ONEWEB-0409             
1 50488U 21132V   25336.48412830 -.00000240  00000+0 -71316-3 0  9991
2 50488  87.8877  60.2105 0001282 109.7793 250.3474 13.11417092189805
ONEWEB-0412             
1 50489U 21132W   25336.35667352  .00000071  00000+0  14793-3 0  9995
2 50489  87.9191  14.5509 0002091 102.0010 258.1356 13.18685490195711
ONEWEB-0413             
1 50490U 21132X   25336.36162637 -.00000011  00000+0 -61095-4 0  9998
2 50490  87.9183  14.5638 0002119  97.7831 262.3541 13.18686970195659
ONEWEB-0414             
1 50491U 21132Y   25336.49852948  .00000001  00000+0 -29757-4 0  9991
2 50491  87.9194  14.4990 0001897 103.1970 256.9374 13.18685029195703
ONEWEB-0417             
1 50492U 21132Z   25336.35502382  .00000062  00000+0  12330-3 0  9995
2 50492  87.9194  14.5614 0001585  99.8936 260.2375 13.18685559195667
ONEWEB-0418             
1 50493U 21132AA  25336.36477030  .00000050  00000+0  94506-4 0  9991
2 50493  87.9193  14.5439 0001318 105.2230 254.9048 13.18684486195727
ONEWEB-0419             
1 50494U 21132AB  25336.38306632  .00000027  00000+0  35492-4 0  9996
2 50494  87.9192  14.5403 0001483  92.0308 268.0994 13.18684505195649
ONEWEB-0420             
1 50495U 21132AC  25336.50016266  .00000004  00000+0 -21835-4 0  9994
2 50495  87.9193  14.5288 0001947  94.7074 265.4280 13.18689475195657
ONEWEB-0421             
1 50496U 21132AD  25336.49357242  .00000027  00000+0  35949-4 0  9990
2 50496  87.9193  14.5231 0001976 104.5397 255.5955 13.18683942195692
ONEWEB-0424             
1 50497U 21132AE  25336.15049219  .00000121  00000+0  27352-3 0  9999
2 50497  87.9194  14.5869 0001491  86.6998 273.4305 13.18682156195672
ONEWEB-0426             
1 50498U 21132AF  25336.49027784  .00000032  00000+0  47588-4 0  9995
2 50498  87.9194  14.5105 0001820 119.5450 240.5864 13.18685330195662
ONEWEB-0427             
1 50499U 21132AG  25336.37647146  .00000095  00000+0  20790-3 0  9997
2 50499  87.9190  14.5211 0001566  99.8167 260.3142 13.18686154195674
ONEWEB-0429             
1 50500U 21132AH  25336.36327088  .00000007  00000+0 -14192-4 0  9993
2 50500  87.9192  14.5556 0001901  93.0535 267.0814 13.18684754195640
ONEWEB-0430             
1 50501U 21132AJ  25336.35172545 -.00000012  00000+0 -63157-4 0  9991
2 50501  87.9194  14.5532 0001764  87.3525 272.7809 13.18685632195686
ONEWEB-0432             
1 50502U 21132AK  25336.38357375 -.00000014  00000+0 -69189-4 0  9994
2 50502  87.9187  14.5194 0000861  89.6879 270.4352 13.18675660195641
ONEWEB-0440             
1 50503U 21132AL  25336.37151733  .00000012  00000+0 -13370-5 0  9993
2 50503  87.9193  14.5393 0002185 100.4362 259.7017 13.18684416195636
ONEWEB-0450             
1 50504U 21132AM  25336.13743261  .00000092  00000+0  20028-3 0  9994
2 50504  87.9189  14.6086 0001950  89.4968 270.6388 13.18687189195632
ONEWEB-0410             
1 51622U 22012A   25336.23885213  .00000115  00000+0  26334-3 0  9991
2 51622  87.9132  45.0054 0001431 156.1584 203.9614 13.17648167187763
ONEWEB-0411             
1 51623U 22012B   25336.31606422 -.00000453  00000+0 -13331-2 0  9993
2 51623  87.8812  75.5124 0001511  83.3038 276.8261 13.10373543183509
ONEWEB-0415             
1 51624U 22012C   25336.31274865 -.00000601  00000+0 -17591-2 0  9993
2 51624  87.8812  75.5158 0001477  93.7716 266.3580 13.10373415183502
ONEWEB-0416             
1 51625U 22012D   25336.32437796 -.00000227  00000+0 -68521-3 0  9993
2 51625  87.8812  75.5337 0001501 103.7033 256.4262 13.10375325183547
ONEWEB-0422             
1 51626U 22012E   25336.47678994  .00000018  00000+0  13873-4 0  9994
2 51626  87.9128  44.9619 0002400  96.4892 263.6512 13.17648149187908
ONEWEB-0423             
1 51627U 22012F   25336.47003885  .00000065  00000+0  13303-3 0  9995
2 51627  87.9128  44.9733 0001852 103.7012 256.4326 13.17648753187793
ONEWEB-0425             
1 51628U 22012G   25336.33434676  .00000328  00000+0  90376-3 0  9994
2 51628  87.8818  75.5023 0001508 117.1046 243.0235 13.10375626183544
ONEWEB-0428             
1 51629U 22012H   25336.31440226 -.00000557  00000+0 -16318-2 0  9990
2 51629  87.8815  75.5257 0001611 103.7558 256.3748 13.10372896183503
ONEWEB-0431             
1 51630U 22012J   25336.51347987  .00000348  00000+0  96022-3 0  9991
2 51630  87.8816  75.4647 0001697  81.2239 278.9081 13.10369761183583
ONEWEB-0434             
1 51631U 22012K   25336.33766492  .00000495  00000+0  13811-2 0  9995
2 51631  87.8808  75.5365 0001586 127.0906 233.0366 13.10375917183544
ONEWEB-0435             
1 51632U 22012L   25336.34597380  .00000715  00000+0  20127-2 0  9998
2 51632  87.8809  75.5248 0002008  99.5748 260.5607 13.10372744183530
ONEWEB-0436             
1 51633U 22012M   25336.23379330  .00000038  00000+0  65428-4 0  9993
2 51633  87.9131  44.9988 0001908  96.4361 263.6988 13.17648715187740
ONEWEB-0438             
1 51634U 22012N   25336.32934519  .00000124  00000+0  31968-3 0  9997
2 51634  87.8812  75.5289 0001509 110.2529 249.8761 13.10374541183565
ONEWEB-0439             
1 51635U 22012P   25336.33268634  .00000295  00000+0  80793-3 0  9996
2 51635  87.8811  75.5171 0001662 105.2027 254.9284 13.10376196183545
ONEWEB-0442             
1 51636U 22012Q   25336.22619569  .00000023  00000+0  26953-4 0  9990
2 51636  87.9122  45.0493 0001334 118.9786 241.1480 13.17649591187730
ONEWEB-0443             
1 51637U 22012R   25336.24560332  .00000101  00000+0  22583-3 0  9997
2 51637  87.9113  45.0504 0001869 112.9506 247.1823 13.17648729187785
ONEWEB-0444             
1 51638U 22012S   25336.32270579 -.00000453  00000+0 -13326-2 0  9994
2 51638  87.8815  75.5179 0001680 104.4247 255.7067 13.10375615183559
ONEWEB-0445             
1 51639U 22012T   25336.34431193  .00000701  00000+0  19723-2 0  9999
2 51639  87.8826  75.4790 0001396 101.9452 258.1832 13.10374401183564
ONEWEB-0446             
1 51640U 22012U   25336.32106676 -.00000302  00000+0 -90183-3 0  9993
2 51640  87.8809  75.5350 0001419  99.8280 260.3008 13.10377499183548
ONEWEB-0448             
1 51641U 22012V   25336.32605139 -.00000056  00000+0 -19701-3 0  9995
2 51641  87.8812  75.5335 0001650 105.2220 254.9090 13.10379035183514
ONEWEB-0449             
1 51642U 22012W   25336.33102406  .00000149  00000+0  39051-3 0  9997
2 51642  87.8819  75.5038 0001542 120.7939 239.3340 13.10376375183521
ONEWEB-0451             
1 51643U 22012X   25336.23041111  .00000054  00000+0  10473-3 0  9994
2 51643  87.9127  44.9946 0001695 105.6071 254.5247 13.17648808187722
ONEWEB-0452             
1 51644U 22012Y   25336.22872713  .00000028  00000+0  40059-4 0  9999
2 51644  87.9119  45.0507 0001891 110.1272 250.0063 13.17647875187732
